TRANSPORTER-10 OBJECT AG
1 59128U 24043AG  26068.92552531  .00009498  00000+0  32170-3 0  9997
2 59128  97.5471 205.7101 0009300 226.5958 133.4509 15.30759727111920
STARLINK-31888          
1 59788U 24093G   26068.46300174 -.00003387  00000+0 -11369-3 0  9997
2 59788  43.0024 209.9290 0001204 265.3673  94.7041 15.27559291102668
